{
  "norad_id": 51740,
  "name": "STARLINK-3500",
  "history": [
    {
      "epoch": "2026-03-28T16:58:20.773632Z",
      "apogee_km": 540.5185062425653,
      "perigee_km": 538.9535450067078,
      "latitude_deg": 4.6233706922862854e-05,
      "longitude_deg": 153.0352085026667,
      "height_km": 540.6857996561627,
      "semi_major_axis_km": 6917.873025624636,
      "eccentricity": 0.00011311,
      "inclination_deg": 53.2154,
      "raan_deg": 233.7455,
      "arg_perigee_deg": 93.955,
      "mean_anomaly_deg": 266.1572,
      "mean_motion_rev_day": 15.08842409
    },
    {
      "epoch": "2026-03-29T02:30:39.217248Z",
      "apogee_km": 540.533285586479,
      "perigee_km": 538.9255734282615,
      "latitude_deg": -3.3073963540296365e-05,
      "longitude_deg": 7.782270579888468,
      "height_km": 540.5351043322098,
      "semi_major_axis_km": 6917.86642950737,
      "eccentricity": 0.0001162,
      "inclination_deg": 53.2163,
      "raan_deg": 231.9612,
      "arg_perigee_deg": 83.557,
      "mean_anomaly_deg": 276.5554,
      "mean_motion_rev_day": 15.08844567
    }
  ]
}